{
  "type": "FeatureCollection",
  "features": [
    {
      "type": "Feature",
      "properties": {
        "norad_id": 41581,
        "name": "INTELSAT 31 (IS-31)",
        "group": "intelsat",
        "lat": -0.02640404597183242,
        "lon": -159.1767757450215,
        "alt_km": 35778.13780001729,
        "timestamp": "2025-12-07T14:37:04.877277+00:00",
        "meta_object_name": "INTELSAT 31 (IS-31)",
        "meta_object_id": "2016-035A",
        "meta_epoch": "2025-12-06T21:46:25.093632",
        "meta_mean_motion": 1.00269437,
        "meta_eccentricity": 0.00021377,
        "meta_inclination": 0.0194,
        "meta_ra_of_asc_node": 271.4012,
        "meta_arg_of_pericenter": 305.9286,
        "meta_mean_anomaly": 90.1564,
        "meta_ephemeris_type": 0,
        "meta_classification_type": "U",
        "meta_norad_cat_id": 41581,
        "meta_element_set_no": 999,
        "meta_rev_at_epoch": 3475,
        "meta_bstar": 0,
        "meta_mean_motion_dot": -1.45e-06,
        "meta_mean_motion_ddot": 0,
        "tle_line1": "1 41581U 16035A   25340.90723488 -.00000145  00000+0  00000+0 0  9998",
        "tle_line2": "2 41581   0.0194 271.4012 0002137 305.9286  90.1564  1.00269437 34754"
      },
      "geometry": {
        "type": "Point",
        "coordinates": [
          -159.1767757450215,
          -0.02640404597183242
        ]
      }
    },
    {
      "type": "Feature",
      "properties": {
        "norad_id": 41747,
        "name": "INTELSAT 36 (IS-36)",
        "group": "intelsat",
        "lat": 0.008289613284686586,
        "lon": 4.401184557505669,
        "alt_km": 35782.33602093378,
        "timestamp": "2025-12-07T14:37:04.877289+00:00",
        "meta_object_name": "INTELSAT 36 (IS-36)",
        "meta_object_id": "2016-053A",
        "meta_epoch": "2025-12-06T10:33:59.887008",
        "meta_mean_motion": 1.00270069,
        "meta_eccentricity": 0.00015206,
        "meta_inclination": 0.0114,
        "meta_ra_of_asc_node": 358.7384,
        "meta_arg_of_pericenter": 316.7777,
        "meta_mean_anomaly": 346.9633,
        "meta_ephemeris_type": 0,
        "meta_classification_type": "U",
        "meta_norad_cat_id": 41747,
        "meta_element_set_no": 999,
        "meta_rev_at_epoch": 3401,
        "meta_bstar": 0,
        "meta_mean_motion_dot": -1.7e-07,
        "meta_mean_motion_ddot": 0,
        "tle_line1": "1 41747U 16053A   25340.44027647 -.00000017  00000+0  00000+0 0  9993",
        "tle_line2": "2 41747   0.0114 358.7384 0001520 316.7777 346.9633  1.00270069 34012"
      },
      "geometry": {
        "type": "Point",
        "coordinates": [
          4.401184557505669,
          0.008289613284686586
        ]
      }
    },
    {
      "type": "Feature",
      "properties": {
        "norad_id": 41945,
        "name": "INTELSAT 32E (IS-32E)",
        "group": "intelsat",
        "lat": -0.020530874732339405,
        "lon": -107.29145313077586,
        "alt_km": 35786.121574461264,
        "timestamp": "2025-12-07T14:37:04.877301+00:00",
        "meta_object_name": "INTELSAT 32E (IS-32E)",
        "meta_object_id": "2017-007B",
        "meta_epoch": "2025-12-06T18:35:43.360224",
        "meta_mean_motion": 1.00270174,
        "meta_eccentricity": 1.695e-05,
        "meta_inclination": 0.0314,
        "meta_ra_of_asc_node": 71.2859,
        "meta_arg_of_pericenter": 226.9586,
        "meta_mean_anomaly": 13.316,
        "meta_ephemeris_type": 0,
        "meta_classification_type": "U",
        "meta_norad_cat_id": 41945,
        "meta_element_set_no": 999,
        "meta_rev_at_epoch": 3229,
        "meta_bstar": 0,
        "meta_mean_motion_dot": -2.63e-06,
        "meta_mean_motion_ddot": 0,
        "tle_line1": "1 41945U 17007B   25340.77480741 -.00000263  00000+0  00000+0 0  9990",
        "tle_line2": "2 41945   0.0314  71.2859 0000169 226.9586  13.3160  1.00270174 32291"
      },
      "geometry": {
        "type": "Point",
        "coordinates": [
          -107.29145313077586,
          -0.020530874732339405
        ]
      }
    },
    {
      "type": "Feature",
      "properties": {
        "norad_id": 42818,
        "name": "INTELSAT 35E (IS-35E)",
        "group": "intelsat",
        "lat": -0.04052581142554958,
        "lon": -98.59599753530179,
        "alt_km": 35776.45618557891,
        "timestamp": "2025-12-07T14:37:04.877313+00:00",
        "meta_object_name": "INTELSAT 35E (IS-35E)",
        "meta_object_id": "2017-041A",
        "meta_epoch": "2025-12-06T22:03:45.931104",
        "meta_mean_motion": 1.00269984,
        "meta_eccentricity": 0.0002407,
        "meta_inclination": 0.0181,
        "meta_ra_of_asc_node": 2.8102,
        "meta_arg_of_pericenter": 257.3123,
        "meta_mean_anomaly": 112.2841,
        "meta_ephemeris_type": 0,
        "meta_classification_type": "U",
        "meta_norad_cat_id": 42818,
        "meta_element_set_no": 999,
        "meta_rev_at_epoch": 3088,
        "meta_bstar": 0,
        "meta_mean_motion_dot": -2.32e-06,
        "meta_mean_motion_ddot": 0,
        "tle_line1": "1 42818U 17041A   25340.91928161 -.00000232  00000+0  00000+0 0  9993",
        "tle_line2": "2 42818   0.0181   2.8102 0002407 257.3123 112.2841  1.00269984 30881"
      },
      "geometry": {
        "type": "Point",
        "coordinates": [
          -98.59599753530179,
          -0.04052581142554958
        ]
      }
    },
    {
      "type": "Feature",
      "properties": {
        "norad_id": 42950,
        "name": "INTELSAT 37E (IS-37E)",
        "group": "intelsat",
        "lat": -0.03755860078381687,
        "lon": -82.08890458805746,
        "alt_km": 35773.11193336631,
        "timestamp": "2025-12-07T14:37:04.877324+00:00",
        "meta_object_name": "INTELSAT 37E (IS-37E)",
        "meta_object_id": "2017-059A",
        "meta_epoch": "2025-12-06T22:08:22.989120",
        "meta_mean_motion": 1.00270709,
        "meta_eccentricity": 0.00034731,
        "meta_inclination": 0.0171,
        "meta_ra_of_asc_node": 348.0032,
        "meta_arg_of_pericenter": 264.4933,
        "meta_mean_anomaly": 137.5564,
        "meta_ephemeris_type": 0,
        "meta_classification_type": "U",
        "meta_norad_cat_id": 42950,
        "meta_element_set_no": 999,
        "meta_rev_at_epoch": 3013,
        "meta_bstar": 0,
        "meta_mean_motion_dot": -1.35e-06,
        "meta_mean_motion_ddot": 0,
        "tle_line1": "1 42950U 17059A   25340.92248830 -.00000135  00000+0  00000+0 0  9990",
        "tle_line2": "2 42950   0.0171 348.0032 0003473 264.4933 137.5564  1.00270709 30133"
      },
      "geometry": {
        "type": "Point",
        "coordinates": [
          -82.08890458805746,
          -0.03755860078381687
        ]
      }
    },
    {
      "type": "Feature",
      "properties": {
        "norad_id": 43632,
        "name": "AZERSPACE 2 (IS-38)",
        "group": "intelsat",
        "lat": -0.0019122417233261467,
        "lon": -18.977705590275853,
        "alt_km": 35785.5160187512,
        "timestamp": "2025-12-07T14:37:04.877337+00:00",
        "meta_object_name": "AZERSPACE 2 (IS-38)",
        "meta_object_id": "2018-074A",
        "meta_epoch": "2025-12-06T05:46:38.731584",
        "meta_mean_motion": 1.0027024,
        "meta_eccentricity": 0.00016364,
        "meta_inclination": 0.0015,
        "meta_ra_of_asc_node": 351.9319,
        "meta_arg_of_pericenter": 265.925,
        "meta_mean_anomaly": 309.2023,
        "meta_ephemeris_type": 0,
        "meta_classification_type": "U",
        "meta_norad_cat_id": 43632,
        "meta_element_set_no": 999,
        "meta_rev_at_epoch": 2651,
        "meta_bstar": 0,
        "meta_mean_motion_dot": 1.45e-06,
        "meta_mean_motion_ddot": 0,
        "tle_line1": "1 43632U 18074A   25340.24072606  .00000145  00000+0  00000+0 0  9997",
        "tle_line2": "2 43632   0.0015 351.9319 0001636 265.9250 309.2023  1.00270240 26511"
      },
      "geometry": {
        "type": "Point",
        "coordinates": [
          -18.977705590275853,
          -0.0019122417233261467
        ]
      }
    },
    {
      "type": "Feature",
      "properties": {
        "norad_id": 43633,
        "name": "HORIZONS-3E",
        "group": "intelsat",
        "lat": 0.0011318205696612077,
        "lon": 104.90515840986815,
        "alt_km": 35791.781136754376,
        "timestamp": "2025-12-07T14:37:04.877348+00:00",
        "meta_object_name": "HORIZONS-3E",
        "meta_object_id": "2018-074B",
        "meta_epoch": "2025-12-06T04:02:38.488128",
        "meta_mean_motion": 1.00269385,
        "meta_eccentricity": 0.00012044,
        "meta_inclination": 0.0412,
        "meta_ra_of_asc_node": 188.1076,
        "meta_arg_of_pericenter": 91.4759,
        "meta_mean_anomaly": 25.3122,
        "meta_ephemeris_type": 0,
        "meta_classification_type": "U",
        "meta_norad_cat_id": 43633,
        "meta_element_set_no": 999,
        "meta_rev_at_epoch": 2640,
        "meta_bstar": 0,
        "meta_mean_motion_dot": -2.2e-07,
        "meta_mean_motion_ddot": 0,
        "tle_line1": "1 43633U 18074B   25340.16850102 -.00000022  00000+0  00000+0 0  9999",
        "tle_line2": "2 43633   0.0412 188.1076 0001204  91.4759  25.3122  1.00269385 26402"
      },
      "geometry": {
        "type": "Point",
        "coordinates": [
          104.90515840986815,
          0.0011318205696612077
        ]
      }
    }
  ]
}